TEVEL2-3                
1 63218U 25052J   26068.64540225  .00020365  00000+0  69446-3 0  9991
2 63218  97.3994 324.7775 0004761 105.7353 254.4413 15.30377031 54855
STARLINK-33750          
1 63513U 25071W   26068.53660012  .00029115  00000+0  99185-3 0  9990
2 63513  53.1584 140.7934 0001226 100.9824 259.1314 15.30181383 52723
