[{"OBJECT_NAME":"TEVEL2-3","OBJECT_ID":"2025-052J","EPOCH":"2026-03-09T15:29:22.754400","MEAN_MOTION":15.30377031,"ECCENTRICITY":0.0004761,"INCLINATION":97.3994,"RA_OF_ASC_NODE":324.7775,"ARG_OF_PERICENTER":105.7353,"MEAN_ANOMALY":254.4413,"EPHEMERIS_TYPE":0,"CLASSIFICATION_TYPE":"U","NORAD_CAT_ID":63218,"ELEMENT_SET_NO":999,"REV_AT_EPOCH":5485,"BSTAR":0.00069446,"MEAN_MOTION_DOT":0.00020365,"MEAN_MOTION_DDOT":0},{"OBJECT_NAME":"STARLINK-33750","OBJECT_ID":"2025-071W","EPOCH":"2026-03-09T12:52:42.250368","MEAN_MOTION":15.30181383,"ECCENTRICITY":0.00012263,"INCLINATION":53.1584,"RA_OF_ASC_NODE":140.7934,"ARG_OF_PERICENTER":100.9824,"MEAN_ANOMALY":259.1314,"EPHEMERIS_TYPE":0,"CLASSIFICATION_TYPE":"U","NORAD_CAT_ID":63513,"ELEMENT_SET_NO":999,"REV_AT_EPOCH":5272,"BSTAR":0.00099185208,"MEAN_MOTION_DOT":0.00029115,"MEAN_MOTION_DDOT":0}]
